#aV2013  5  2  0  0  0.00000000     288 DD+AD WGS84 FIT  NGA
## 1738 345600.00000000   300.00000000 56414 0.0000000000000
+   30     1  2  3  4  5  6  7  8  9 10 11 12 13 14 15 16 17
+         18 19 20 21 22 23 24 25 26 28 29 31 32  0  0  0  0
+          0  0  0  0  0  0  0  0  0  0  0  0  0  0  0  0  0
+          0  0  0  0  0  0  0  0  0  0  0  0  0  0  0  0  0
+          0  0  0  0  0  0  0  0  0  0  0  0  0  0  0  0  0
++         2  2  2  2  2  2  2  2  2  2  2  2  2  2  2  2  2
++         2  2  2  2  2  2  2  2  2  2  2  2  2  2  2  0  0
++         0  0  0  0  0  0  0  0  0  0  0  0  0  0  0  0  0
++         0  0  0  0  0  0  0  0  0  0  0  0  0  0  0  0  0
++         0  0  0  0  0  0  0  0  0  0  0  0  0  0  0  0  0
%c cc cc ccc ccc cccc cccc cccc cccc ccccc ccccc ccccc ccccc
%c cc cc ccc ccc cccc cccc cccc cccc ccccc ccccc ccccc ccccc
%f  0.0000000  0.000000000  0.00000000000  0.000000000000000
%f  0.0000000  0.000000000  0.00000000000  0.000000000000000
%i    0    0    0    0      0      0      0      0         0
%i    0    0    0    0      0      0      0      0         0
/*      NGA, ST. LOUIS,MO.                                  
/*   EPHEMERIS COMPUTED FROM  1 DAYS OF DATA
/*   EPOCHA SMOOTHER  
/* CCCCCCCCCCCCCCCCCCCCCCCCCCCCCCCCCCCCCCCCCCCCCCCCCCCCCCCCC
*  2013  5  2 19 55  0.00000000                                                 
P  1 -12962.630362 -13502.963442 -18891.947866     21.989746                    
V  1  23952.803157   -857.765918 -15752.717564      0.038852                    
P  2 -12089.434344  13984.382477  19092.737769    430.209536                    
V  2 -24061.504148  -1844.912593 -14547.654362      0.018595                    
P  3   7641.692623 -25103.200375  -3746.681271    201.696310                    
V  3   5090.836710  -2392.277149  30812.478239      0.048129                    
P  4 -22972.493190   7656.265424  10949.541780    207.058454                    
V  4 -14219.613798  -3149.556427 -26663.706971      0.104440                    
P  5  -1832.006912  20798.833209  16305.427243   -393.480484                    
V  5 -12008.075558 -17179.805756  20667.471362     -0.011237                    
P  6  13423.888636 -22605.861624   1993.295379    249.002726                    
V  6   2191.665767   3919.699190  31403.330786     -0.160726                    
P  7 -24764.964591  -6303.666818   7823.064114    209.354355                    
V  7   9855.040794  -1563.675460  29805.986610      0.042769                    
P  8 -26688.036357  -1810.835069  -2625.506768      5.941822                    
V  8  -3222.449944  -1557.558955  31937.253878      0.002379                    
P  9 -18458.960776  10625.892293 -16449.209352    238.168542                    
V  9 -19775.167924  -1548.239632  21869.020062      0.026486                    
P 10 -14446.002731   5651.177144  21284.285007    -78.488596                    
V 10 -12938.002302 -24561.978520  -1819.464311     -0.012641                    
P 11  -6096.700036 -15878.881235 -20848.799617   -378.065786                    
V 11  24828.618256  -7127.929639  -1592.284016     -0.036153                    
P 12  10900.528270  24267.771415  -1995.043514    131.620439                    
V 12  -2807.544929  -1341.866611 -31991.393279      0.020682                    
P 13 -12323.018393  -8040.090634  21973.258057    122.998832                    
V 13  16885.512976 -22559.561632   1086.171411     -0.036108                    
P 14  19437.722524 -10904.238293 -14139.770280    221.015508                    
V 14  -8944.385974  16111.445988 -24524.685968     -0.000730                    
P 15    -43.891357  21955.070857 -14795.505895   -117.559259                    
V 15 -11616.930570  15131.137446  22786.364688     -0.014931                    
P 16   2965.141088 -19889.991776  17147.955059   -252.316355                    
V 16  10945.460909  19020.190544  20477.019354      0.001673                    
P 17 -19162.662646  11334.144325 -14084.742463     23.591071                    
V 17   8205.816585 -16562.393772 -24348.032108     -0.039440                    
P 18  18853.118182  10033.820829 -15600.634295    251.688245                    
V 18   7693.031030  19169.641007  20730.039975      0.018755                    
P 19   5300.059225 -22402.416791 -12951.776467   -369.721329                    
V 19  11789.011097 -11770.007818  25765.613764     -0.031182                    
P 20 -14538.120906 -22254.239406    802.106864     95.972321                    
V 20   2558.494145  -3032.684044 -30955.341628      0.019556                    
P 21  26226.749736   4007.537872   4667.974180   -295.283037                    
V 21  -5237.322736   3032.947637  30018.938390     -0.021525                    
P 22  16356.059670  -2423.774430 -20614.079005    166.441474                    
V 22  12113.743745  23844.996333   6601.135560      0.011905                    
P 23  -6529.099372 -16196.749530  19963.299846     89.557365                    
V 23  14520.000534 -20807.513065 -12561.511612     -0.036181                    
P 24   9035.761034  14431.636011 -20406.618032     -5.593770                    
V 24 -25891.010896    658.847350 -10963.505847     -0.006857                    
P 25  16953.028027  18739.640254   8292.001542     93.435970                    
V 25   3242.161035  10277.803561 -29589.050425      0.040115                    
P 26 -12156.453839  22863.851465  -5662.650087     -3.467721                    
V 26  -5707.911157   3767.172140  31305.411825      0.152145                    
P 28 -16334.641586  -2939.916964 -20201.120795    255.100654                    
V 28 -10885.981621 -24572.977928  11866.481714      0.034142                    
P 29  12485.070579   8555.711287  21880.060508    431.863681                    
V 29 -15411.977286  22939.981380   -130.455923      0.036264                    
P 31  21894.724768  -7890.901475  13225.087355    312.891899                    
V 31  16287.878219   2250.052483 -25684.865111      0.014236                    
P 32  -6764.197897 -25310.632458  -5680.906120   -553.886579                    
V 32   5372.060839   5595.685791 -30081.185886     -0.021312                    
EOF
